{
  "norad_id": 51984,
  "name": "STARLINK-3664",
  "history": [
    {
      "epoch": "2026-04-15T16:15:46.425888Z",
      "apogee_km": 540.6949675235755,
      "perigee_km": 538.9004552594397,
      "latitude_deg": 2.137168926402327e-05,
      "longitude_deg": 145.38232551129505,
      "height_km": 540.684239343955,
      "semi_major_axis_km": 6917.934711391507,
      "eccentricity": 0.0001297,
      "inclination_deg": 53.2171,
      "raan_deg": 233.162,
      "arg_perigee_deg": 89.411,
      "mean_anomaly_deg": 270.7031,
      "mean_motion_rev_day": 15.08822228
    },
    {
      "epoch": "2026-04-16T17:41:56.957856Z",
      "apogee_km": 540.6205235832631,
      "perigee_km": 538.9090346831053,
      "latitude_deg": -5.549194260538503e-05,
      "longitude_deg": 118.03645716793379,
      "height_km": 540.6179992447047,
      "semi_major_axis_km": 6917.9017791331835,
      "eccentricity": 0.0001237,
      "inclination_deg": 53.2172,
      "raan_deg": 228.4047,
      "arg_perigee_deg": 87.1437,
      "mean_anomaly_deg": 272.9696,
      "mean_motion_rev_day": 15.08833002
    },
    {
      "epoch": "2026-04-17T14:21:57.681792Z",
      "apogee_km": 540.5885372234488,
      "perigee_km": 538.9019575315388,
      "latitude_deg": 1.6986626175210173e-05,
      "longitude_deg": 163.3185377471995,
      "height_km": 540.6260169147127,
      "semi_major_axis_km": 6917.8822473774935,
      "eccentricity": 0.0001219,
      "inclination_deg": 53.2172,
      "raan_deg": 224.5385,
      "arg_perigee_deg": 88.9735,
      "mean_anomaly_deg": 271.1397,
      "mean_motion_rev_day": 15.08839392
    },
    {
      "epoch": "2026-04-18T14:12:44.090208Z",
      "apogee_km": 540.5855788277904,
      "perigee_km": 538.8422803935282,
      "latitude_deg": 4.324738977847859e-05,
      "longitude_deg": 160.18525968886567,
      "height_km": 540.5872562866194,
      "semi_major_axis_km": 6917.850929610659,
      "eccentricity": 0.000126,
      "inclination_deg": 53.2171,
      "raan_deg": 220.0779,
      "arg_perigee_deg": 88.5219,
      "mean_anomaly_deg": 271.5918,
      "mean_motion_rev_day": 15.08849638
    },
    {
      "epoch": "2026-04-19T14:03:31.894848Z",
      "apogee_km": 540.4715084994878,
      "perigee_km": 539.0284372769429,
      "latitude_deg": 2.8023109721745005e-05,
      "longitude_deg": 157.04641605700667,
      "height_km": 540.6472148118937,
      "semi_major_axis_km": 6917.886972888215,
      "eccentricity": 0.0001043,
      "inclination_deg": 53.2176,
      "raan_deg": 215.6176,
      "arg_perigee_deg": 90.0863,
      "mean_anomaly_deg": 270.0249,
      "mean_motion_rev_day": 15.08837846
    },
    {
      "epoch": "2026-04-20T13:54:18.744768Z",
      "apogee_km": 540.5293033759262,
      "perigee_km": 538.9505055087957,
      "latitude_deg": -5.717151043691774e-05,
      "longitude_deg": 153.9110082300259,
      "height_km": 540.6782712449873,
      "semi_major_axis_km": 6917.876904442361,
      "eccentricity": 0.00011411,
      "inclination_deg": 53.217,
      "raan_deg": 211.1568,
      "arg_perigee_deg": 93.0784,
      "mean_anomaly_deg": 267.0338,
      "mean_motion_rev_day": 15.0884114
    },
    {
      "epoch": "2026-04-22T12:00:29.808000Z",
      "apogee_km": 540.5893547240557,
      "perigee_km": 538.9193757484873,
      "latitude_deg": -6.185958442879737e-05,
      "longitude_deg": 171.8476172474908,
      "height_km": 540.5686874970115,
      "semi_major_axis_km": 6917.891365236271,
      "eccentricity": 0.0001207,
      "inclination_deg": 53.2182,
      "raan_deg": 202.5329,
      "arg_perigee_deg": 84.3851,
      "mean_anomaly_deg": 275.7278,
      "mean_motion_rev_day": 15.08836409
    },
    {
      "epoch": "2026-04-23T11:51:16.288128Z",
      "apogee_km": 540.5275412482188,
      "perigee_km": 538.9332495282779,
      "latitude_deg": 3.627107944055718e-05,
      "longitude_deg": 168.71479045509062,
      "height_km": 540.5500706719585,
      "semi_major_axis_km": 6917.867395388248,
      "eccentricity": 0.00011523,
      "inclination_deg": 53.2173,
      "raan_deg": 198.073,
      "arg_perigee_deg": 84.5067,
      "mean_anomaly_deg": 275.6057,
      "mean_motion_rev_day": 15.08844251
    }
  ]
}